IRIDIUM 171             
1 43929U 19002H   25357.90281994  .00000292  00000+0  97237-4 0  9997
2 43929  86.3967  67.1373 0002452  96.6850 263.4625 14.34218632363837
IRIDIUM 170             
1 43930U 19002J   25357.60459258  .00000901  00000+0  13889-3 0  9993
2 43930  86.6080  66.9717 0002296  91.4778 268.6702 14.72259852373425
IRIDIUM 167             
1 43931U 19002K   25357.89646969  .00000026  00000+0  23747-5 0  9996
2 43931  86.3958  66.8735 0002499 101.0626 259.0851 14.34217937363830
IRIDIUM 181             
1 56726U 23068S   25357.77241975  .00000387  00000+0  10896-3 0  9993
2 56726  86.4520 130.1186 0002239  82.9410 277.2045 14.43314843137130
IRIDIUM 177             
1 56727U 23068T   25357.55843093  .00001168  00000+0  15024-3 0  9995
2 56727  86.1956  52.1915 0002180  86.7058 273.4413 14.80233396140381
IRIDIUM 174             
1 56728U 23068U   25357.93208002  .00001007  00000+0  15580-3 0  9992
2 56728  86.6087  66.9645 0002057  91.0272 269.1181 14.72255007140237
IRIDIUM 178             
1 56729U 23068V   25357.34469628  .00001447  00000+0  18707-3 0  9993
2 56729  86.6542  98.8688 0002490  91.3551 268.7956 14.80229718140356
IRIDIUM 179             
1 56730U 23068W   25357.33932414  .00001370  00000+0  17685-3 0  9991
2 56730  86.6788 107.3265 0002400  89.0921 271.0576 14.80238968140355
